{
  "type": "FeatureCollection",
  "features": [
    {
      "type": "Feature",
      "properties": {
        "norad_id": 46277,
        "name": "NEMO-HD",
        "group": "resource",
        "lat": -43.366402538529364,
        "lon": -133.4766213554604,
        "alt_km": 452.3934385920211,
        "timestamp": "2025-12-20T09:36:01.289454+00:00",
        "meta_object_name": "NEMO-HD",
        "meta_object_id": "2020-061F",
        "meta_epoch": "2025-12-20T03:57:18.946368",
        "meta_mean_motion": 15.40471165,
        "meta_eccentricity": 0.0001392,
        "meta_inclination": 97.2204,
        "meta_ra_of_asc_node": 53.1688,
        "meta_arg_of_pericenter": 51.6776,
        "meta_mean_anomaly": 308.4596,
        "meta_ephemeris_type": 0,
        "meta_classification_type": "U",
        "meta_norad_cat_id": 46277,
        "meta_element_set_no": 999,
        "meta_rev_at_epoch": 29438,
        "meta_bstar": 0.00018457,
        "meta_mean_motion_dot": 7.396e-05,
        "meta_mean_motion_ddot": 0,
        "tle_line1": "1 46277U 20061F   25354.16480262  .00007396  00000+0  18457-3 0  9995",
        "tle_line2": "2 46277  97.2204  53.1688 0001392  51.6776 308.4596 15.40471165294385"
      },
      "geometry": {
        "type": "Point",
        "coordinates": [
          -133.4766213554604,
          -43.366402538529364
        ]
      }
    },
    {
      "type": "Feature",
      "properties": {
        "norad_id": 46984,
        "name": "SENTINEL-6A",
        "group": "resource",
        "lat": 36.059886804182256,
        "lon": -52.49360388455013,
        "alt_km": 1338.0122212707365,
        "timestamp": "2025-12-20T09:36:01.289464+00:00",
        "meta_object_name": "SENTINEL-6A",
        "meta_object_id": "2020-086A",
        "meta_epoch": "2025-12-19T19:45:19.960416",
        "meta_mean_motion": 12.80930846,
        "meta_eccentricity": 0.0007715,
        "meta_inclination": 66.0393,
        "meta_ra_of_asc_node": 147.5954,
        "meta_arg_of_pericenter": 269.316,
        "meta_mean_anomaly": 90.6971,
        "meta_ephemeris_type": 0,
        "meta_classification_type": "U",
        "meta_norad_cat_id": 46984,
        "meta_element_set_no": 999,
        "meta_rev_at_epoch": 23735,
        "meta_bstar": -1.8192625e-05,
        "meta_mean_motion_dot": -6.5e-07,
        "meta_mean_motion_ddot": 0,
        "tle_line1": "1 46984U 20086A   25353.82314769 -.00000065  00000+0 -18193-4 0  9993",
        "tle_line2": "2 46984  66.0393 147.5954 0007715 269.3160  90.6971 12.80930846237355"
      },
      "geometry": {
        "type": "Point",
        "coordinates": [
          -52.49360388455013,
          36.059886804182256
        ]
      }
    },
    {
      "type": "Feature",
      "properties": {
        "norad_id": 48079,
        "name": "GAOFEN-12 02",
        "group": "resource",
        "lat": 57.91905728468567,
        "lon": -178.68975724283447,
        "alt_km": 619.5420318869847,
        "timestamp": "2025-12-20T09:36:01.289474+00:00",
        "meta_object_name": "GAOFEN-12 02",
        "meta_object_id": "2021-026A",
        "meta_epoch": "2025-12-20T05:48:42.592032",
        "meta_mean_motion": 14.80683289,
        "meta_eccentricity": 0.00036,
        "meta_inclination": 97.9854,
        "meta_ra_of_asc_node": 348.2124,
        "meta_arg_of_pericenter": 86.1148,
        "meta_mean_anomaly": 274.0476,
        "meta_ephemeris_type": 0,
        "meta_classification_type": "U",
        "meta_norad_cat_id": 48079,
        "meta_element_set_no": 999,
        "meta_rev_at_epoch": 25528,
        "meta_bstar": 5.0146e-05,
        "meta_mean_motion_dot": 3.33e-06,
        "meta_mean_motion_ddot": 0,
        "tle_line1": "1 48079U 21026A   25354.24215963  .00000333  00000+0  50146-4 0  9998",
        "tle_line2": "2 48079  97.9854 348.2124 0003600  86.1148 274.0476 14.80683289255284"
      },
      "geometry": {
        "type": "Point",
        "coordinates": [
          -178.68975724283447,
          57.91905728468567
        ]
      }
    },
    {
      "type": "Feature",
      "properties": {
        "norad_id": 48268,
        "name": "PLEIADES NEO 3",
        "group": "resource",
        "lat": -35.07540265161509,
        "lon": -118.86028733143833,
        "alt_km": 630.8484845556504,
        "timestamp": "2025-12-20T09:36:01.289484+00:00",
        "meta_object_name": "PLEIADES NEO 3",
        "meta_object_id": "2021-034A",
        "meta_epoch": "2025-12-20T05:23:23.628192",
        "meta_mean_motion": 14.81672552,
        "meta_eccentricity": 0.000132,
        "meta_inclination": 97.8951,
        "meta_ra_of_asc_node": 66.5585,
        "meta_arg_of_pericenter": 92.3196,
        "meta_mean_anomaly": 267.8168,
        "meta_ephemeris_type": 0,
        "meta_classification_type": "U",
        "meta_norad_cat_id": 48268,
        "meta_element_set_no": 999,
        "meta_rev_at_epoch": 25115,
        "meta_bstar": 4.9011e-05,
        "meta_mean_motion_dot": 3.34e-06,
        "meta_mean_motion_ddot": 0,
        "tle_line1": "1 48268U 21034A   25354.22457903  .00000334  00000+0  49011-4 0  9997",
        "tle_line2": "2 48268  97.8951  66.5585 0001320  92.3196 267.8168 14.81672552251153"
      },
      "geometry": {
        "type": "Point",
        "coordinates": [
          -118.86028733143833,
          -35.07540265161509
        ]
      }
    },
    {
      "type": "Feature",
      "properties": {
        "norad_id": 49070,
        "name": "PLEIADES NEO 4",
        "group": "resource",
        "lat": 34.92205099910567,
        "lon": 61.16759957236856,
        "alt_km": 621.246482259382,
        "timestamp": "2025-12-20T09:36:01.289495+00:00",
        "meta_object_name": "PLEIADES NEO 4",
        "meta_object_id": "2021-073E",
        "meta_epoch": "2025-12-20T04:34:45.131232",
        "meta_mean_motion": 14.8167264,
        "meta_eccentricity": 0.0001325,
        "meta_inclination": 97.8952,
        "meta_ra_of_asc_node": 66.5213,
        "meta_arg_of_pericenter": 92.3305,
        "meta_mean_anomaly": 267.8059,
        "meta_ephemeris_type": 0,
        "meta_classification_type": "U",
        "meta_norad_cat_id": 49070,
        "meta_element_set_no": 999,
        "meta_rev_at_epoch": 23486,
        "meta_bstar": -3.0457e-05,
        "meta_mean_motion_dot": -2.92e-06,
        "meta_mean_motion_ddot": 0,
        "tle_line1": "1 49070U 21073E   25354.19080013 -.00000292  00000+0 -30457-4 0  9991",
        "tle_line2": "2 49070  97.8952  66.5213 0001325  92.3305 267.8059 14.81672640234867"
      },
      "geometry": {
        "type": "Point",
        "coordinates": [
          61.16759957236856,
          34.92205099910567
        ]
      }
    },
    {
      "type": "Feature",
      "properties": {
        "norad_id": 49260,
        "name": "LANDSAT 9",
        "group": "resource",
        "lat": 80.03222376549209,
        "lon": -62.38076471336898,
        "alt_km": 694.3579943607538,
        "timestamp": "2025-12-20T09:36:01.289504+00:00",
        "meta_object_name": "LANDSAT 9",
        "meta_object_id": "2021-088A",
        "meta_epoch": "2025-12-20T04:13:07.784256",
        "meta_mean_motion": 14.57105039,
        "meta_eccentricity": 0.0001104,
        "meta_inclination": 98.2085,
        "meta_ra_of_asc_node": 62.1788,
        "meta_arg_of_pericenter": 91.1503,
        "meta_mean_anomaly": 268.9822,
        "meta_ephemeris_type": 0,
        "meta_classification_type": "U",
        "meta_norad_cat_id": 49260,
        "meta_element_set_no": 999,
        "meta_rev_at_epoch": 22493,
        "meta_bstar": 7.8911e-05,
        "meta_mean_motion_dot": 3.1e-06,
        "meta_mean_motion_ddot": 0,
        "tle_line1": "1 49260U 21088A   25354.17578454  .00000310  00000+0  78911-4 0  9993",
        "tle_line2": "2 49260  98.2085  62.1788 0001104  91.1503 268.9822 14.57105039224934"
      },
      "geometry": {
        "type": "Point",
        "coordinates": [
          -62.38076471336898,
          80.03222376549209
        ]
      }
    },
    {
      "type": "Feature",
      "properties": {
        "norad_id": 51444,
        "name": "CSG-2",
        "group": "resource",
        "lat": 78.24080084135596,
        "lon": 133.9017282895156,
        "alt_km": 614.2347922647796,
        "timestamp": "2025-12-20T09:36:01.289515+00:00",
        "meta_object_name": "CSG-2",
        "meta_object_id": "2022-008A",
        "meta_epoch": "2025-12-20T04:22:27.999264",
        "meta_mean_motion": 14.82148425,
        "meta_eccentricity": 0.0001438,
        "meta_inclination": 97.8797,
        "meta_ra_of_asc_node": 175.3926,
        "meta_arg_of_pericenter": 83.7735,
        "meta_mean_anomaly": 276.3642,
        "meta_ephemeris_type": 0,
        "meta_classification_type": "U",
        "meta_norad_cat_id": 51444,
        "meta_element_set_no": 999,
        "meta_rev_at_epoch": 21007,
        "meta_bstar": -2.5387e-05,
        "meta_mean_motion_dot": -2.54e-06,
        "meta_mean_motion_ddot": 0,
        "tle_line1": "1 51444U 22008A   25354.18226851 -.00000254  00000+0 -25387-4 0  9993",
        "tle_line2": "2 51444  97.8797 175.3926 0001438  83.7735 276.3642 14.82148425210078"
      },
      "geometry": {
        "type": "Point",
        "coordinates": [
          133.9017282895156,
          78.24080084135596
        ]
      }
    }
  ]
}